name,acronym,rnc,token,email,website,slug,province_id,municip_id,sector_id,hood_id,phone,address,picture,recaudationCode,status_insti,created_at,updated_at
Oficina Gubernamental de Tecnologías de la Información y Comunicación,OGTIC,1233,c00fceab-3c1f-4f17-93cd-7711475d4e00,Info@ogtic.gob.do,www.ogtic.gob.do/,oficina-gubernamental-de-tecnologÃ­as-de-la-informaciÃ³n-y-comunicaciÃ³n,1,1,1,5,(809) 286-1009,AV 27 DE FEBRERO #419,https://psplbk.serviciosrd.gob.do/storage/logos/logo1.png,0024,1,2018-11-06 14:14:13,2022-04-04 12:41:03
Superintendencia del Mercado de Valores,SIMV,,fbfed923-fbcb-4b4c-a8be-892a9858127b,info@simv.gov.do,www.simv.gob.do,superintendencia-del-mercado-de-valores,1,1,1,53,(809) 221-4433,Santo Domingo,https://psplbk.serviciosrd.gob.do/storage/logos/logo6.png,0022,1,2018-11-06 14:14:13,2022-04-04 12:45:42
"Ministerio de Educación Superior, Ciencia y Tecnología",MESCYT,401505657,d97a2c56-a382-4e05-b69e-9bf75d838536,info@mescyt.gob.do,www.mescyt.gob.do/,"ministerio-de-educaciÃ³n-superior,-ciencia-y-tecnologÃ­a",1,1,1,38,(809) 731-1100,Santo Domingo,https://psplbk.serviciosrd.gob.do/storage/logos/logo7.png,0006,1,2018-11-06 14:14:13,2022-05-17 16:42:44
Corporación del Acueducto y Alcantarillado de Santo Domingo,CAASD,401036746,d97a2c56-a382-4e05-b69e-9bf75d838536,info@caasd.gob.do,www.caasd.gob.do/,corporaciÃ³n-del-acueducto-y-alcantarillado-de-santo-domingo,1,1,1,5,(809) 562-3500,Santo Domingo,https://psplbk.serviciosrd.gob.do/storage/logos/logo8.png,0006,1,2018-11-06 14:14:13,2022-05-19 16:07:17
Instituto Nacional de la Vivienda,INVI,401007428,d97a2c56-a382-4e05-b69e-9bf75d838536,info@mived.gob.do,www.mived.gob.do,instituto-nacional-de-la-vivienda,1,1,1,5,(809) 732-0600,AV. PEDRO HENRIQUEZ UREÑA ESQ. AV. ALMA MATER,https://psplbk.serviciosrd.gob.do/storage/logos/logo9.png,0006,1,2018-11-06 14:14:13,2022-04-04 12:38:22
Ministerio de Turismo,MITUR,401036819,c87f54f4-ff32-4b0e-9326-999954e80fd1,info@sectur.gov.do,www.mitur.gob.do,ministerio-de-turismo,1,1,1,5,(809) 221-4660,Santo Domingo,https://psplbk.serviciosrd.gob.do/storage/logos/logo10.png,0018,1,2018-11-06 14:14:13,2022-04-04 12:40:09
Dirección General de Impuestos Internos,DGII,401506254,d97a2c56-a382-4e05-b69e-9bf75d838536,info@dgii.gov.do,www.dgii.gov.do/,direcciÃ³n-general-de-impuestos-internos,1,1,1,5,(809) 689-2181,Santo Domingo,https://psplbk.serviciosrd.gob.do/storage/logos/logo11.png,0006,1,2018-11-06 14:14:13,2022-04-04 12:25:37
Ayuntamiento Municipal de Santo Domingo Este,ASDE,11111111,d97a2c56-a382-4e05-b69e-9bf75d838536,contacto@ayuntamientosde.gob.do,http://ayuntamientosde.gob.do/,ayuntamiento-municipal-de-santo-domingo-este,1,1,1,5,(809) 788-7676,Santo Domingo,https://psplbk.serviciosrd.gob.do/storage/logos/logo12.png,0006,1,2018-11-06 14:14:13,2019-04-10 19:23:47
Departamento Aeroportuario,DA,11111111,d97a2c56-a382-4e05-b69e-9bf75d838536,da@da.gob.do,www.da.gob.do,departamento-aeroportuario,1,1,1,5,(809) 549-1253,Santo Domingo,https://psplbk.serviciosrd.gob.do/storage/logos/logo13.png,0006,1,2018-11-06 14:14:14,2022-03-21 15:31:18
Instituto Nacional de Bienestar Magisterial,INABIMA,401517728,d97a2c56-a382-4e05-b69e-9bf75d838536,inabima@inabima.gob.do,www.inabima.gob.do/,instituto-nacional-de-bienestar-magisterial,1,1,1,53,(809) 686-6567,"AVE. MÁXIMO GÓMEZ #28, ZONA UNIVERSITARIA",https://psplbk.serviciosrd.gob.do/storage/logos/logo14.png,0006,1,2018-11-06 14:14:14,2022-04-04 12:34:56
Centro de Atención Integral para la Discapacidad,CAID,11111111,d97a2c56-a382-4e05-b69e-9bf75d838536,info@caid.gob.do,www.caid.gob.do,centro-de-atenciÃ³n-integral-para-la-discapacidad,1,1,1,11502,(849) 936-8787,Ave. Luperón casi esq. Enriquillo,https://psplbk.serviciosrd.gob.do/storage/logos/logo15.png,0006,1,2018-11-06 14:14:14,2022-04-04 12:24:32
Empresa Distribuidora de Electricidad del Sur,EDESUR,401981293843,d97a2c56-a382-4e05-b69e-9bf75d838536,info@edesur.gob.do,www.edesur.com.do,empresa-distribuidora-de-electricidad-del-sur,1,1,1,42,(809) 683-9292,Santo Domingo,https://psplbk.serviciosrd.gob.do/storage/logos/logo16.png,0006,1,2018-11-06 15:55:34,2022-04-04 12:32:02
Dirección General de Migración,MIGRACION,999999999,3324,info@migracion.gob.do,https://migracion.gob.do/,direcciÃ³n-general-de-migraciÃ³n,1,1,1,38,(809) 508-2555,"Autopista 30 de Mayo, Esq. Heroes de Luperón",https://psplbk.serviciosrd.gob.do/storage/logos/logo17.png,38928398,1,2018-11-13 20:52:27,2022-04-04 12:28:27
Empresa Distribuidora de Electricidad del Norte,EDENORTE,11111111111,d97a2c56-a382-4e05-b69e-9bf75d838536,info@edenorte.com.do,www.edenorte.com.do,empresa-distribuidora-de-electricidad-del-norte,25,165,821,8085,(809) 241-9090,Av Juan Pablo Duarte 87,https://psplbk.serviciosrd.gob.do/storage/logos/logo18.png,0006,1,2018-12-28 19:12:09,2022-04-04 12:30:47
Empresa Distribuidora de Electricidad del Este,EDEESTE,1651368523,d97a2c56-a382-4e05-b69e-9bf75d838536,contacto.edeeste24@edeeste.com.do,www.edeeste.com.do,empresa-distribuidora-de-electricidad-del-este,32,218,1104,11155,(809) 788-2373,"Ave. San Vicente de Paúl, Centro Comercial Megacentro",https://psplbk.serviciosrd.gob.do/storage/logos/logo19.png,0006,1,2018-12-30 14:06:59,2022-04-04 12:49:05
Centro de Exportación e Inversión de la República Dominicana,PRODOMINICANA,38723878,c65840bc-14e8-4943-945b-df16ad2022bb,servicios@prodominicana.gob.do,www.prodominicana.gob.do,centro-de-exportaciÃ³n-e-inversiÃ³n-de-la-repÃºblica-dominicana,1,1,1,12,(809) 530-5505,Av Gregorio Luperón,https://psplbk.serviciosrd.gob.do/storage/logos/logo20.png,0012,1,2019-01-04 17:17:56,2022-04-04 13:53:04
Administradora de Riesgos de Salud para Maestro,ARS-SEMMA,9999999999,,info@arssemma.gob.do,www.semma.gob.do,administradora-de-riesgos-de-salud-para-maestro,1,1,1,40,(809) 688-6646,"Calle Santiago #705, Zona Universitaria, Santo Domingo, D. N.",https://psplbk.serviciosrd.gob.do/storage/logos/logo21.png,9999,1,2019-02-18 13:16:03,2022-04-04 13:47:18
Ministerio de Educación,MINERD,401007339,,info@minerd.gob.do,www.ministeriodeeducacion.gob.do,ministerio-de-educaciÃ³n,1,1,1,40,(809) 688-9700,"Ave. Máximo Gómez esquina Santiago, No.02 Gazcue, Distrito Nacional,",https://psplbk.serviciosrd.gob.do/storage/logos/logo22.png,9999,1,2019-02-18 13:49:38,2022-04-04 13:59:37
Dirección General de Pasaportes,DGP,1312,132,comunicaciones@pasaportes.gob.do,www.pasaportes.gob.do,direcciÃ³n-general-de-pasaportes,1,1,1,38,(809) 532-4233,"Ave. George Washington # 1, Esq. Héroes de Luperon",https://psplbk.serviciosrd.gob.do/storage/logos/logo23.png,1312,1,2019-02-21 13:34:08,2019-06-17 10:03:21
Ayuntamiento del Distrito Nacional,ADN,401007479,,info@adn.gob.do,www.adn.gob.do,ayuntamiento-del-distrito-nacional,1,1,1,38,(809) 576-7375,Avenida Jiménez Moya,https://psplbk.serviciosrd.gob.do/storage/logos/logo24.png,8888,1,2019-02-28 23:06:31,2022-06-06 09:23:46
Dirección General de Bienes Nacionales,DGBN,,ecf56339-081a-4bf8-8fd9-4e0dd5ef2345,info@bn.gob.do,www.bn.gob.do,direcciÃ³n-general-de-bienes-nacionales,1,1,1,53,(809) 686-5959,C/Pedro Henriquez Ureña Esq. Pedro A. Lluberes,https://psplbk.serviciosrd.gob.do/storage/logos/logo25.png,0010,1,2019-03-26 14:49:42,2019-06-30 15:12:31
Ministerio de Interior y Policía,MIP,401007304,,info@mip.gob.do,www.mip.gob.do,ministerio-de-interior-y-policÃ­a,1,1,1,53,(809) 686-6251,"Av. México, Edificio de Oficinas Gubernamentales Gazcue, Av. John F. Kennedy 419, Santo Domingo 10201",https://psplbk.serviciosrd.gob.do/storage/logos/logo26.png,,1,2019-03-29 14:06:18,2022-04-04 14:02:22
Ministerio de Hacienda,MH,401007322,,info@hacienda.gov.do,www.hacienda.gob.do,ministerio-de-hacienda,1,1,1,53,(809) 687-5131,"Ave. México # 45, Entre Calle Pedro A. Lluberes y Calle Federico H. Carvajal, Gascue, Santo Domingo, R.D.",https://psplbk.serviciosrd.gob.do/storage/logos/logo27.png,,1,2019-03-29 14:36:50,2022-04-04 14:00:18
Instituto Tecnológico de Las Américas,ITLA,423000589,,info@itla.edu.do,www.itla.edu.do,instituto-tecnolÃ³gico-de-las-amÃ©ricas,32,225,1141,11467,(809) 738-4852,"Autopista Las Américas, Km. 27, PCSD",https://psplbk.serviciosrd.gob.do/storage/logos/logo28.png,,1,2019-03-29 14:40:03,2022-04-04 13:58:02
Instituto Dominicano de las Telecomunicaciones,INDOTEL,401508915,,.@indotel.gob.do,www.indotel.gob.do,instituto-dominicano-de-las-telecomunicaciones,1,1,1,11499,(829) 732-5555,Av. Abraham Lincoln No.962,https://psplbk.serviciosrd.gob.do/storage/logos/logo29.png,,1,2019-03-29 14:44:27,2022-09-15 00:42:10
Procuraduría General de la República,PGR,401007371,,info@pgr.gob.do,www.pgr.gob.do,procuradurÃ­a-general-de-la-repÃºblica,1,1,1,38,(809) 533-3522,Ave. Jiménez Moya Esq. Juan Ventura Simó,https://psplbk.serviciosrd.gob.do/storage/logos/logo30.png,,1,2019-03-29 20:35:07,2022-04-04 14:02:50
Servicio Nacional de Salud,SNS,401516454,,info@sns.gob.do,www.sns.gob.do/,servicio-nacional-de-salud,1,1,1,53,(809) 221-3637,"Av. Leopoldo Navarro esq. César Nicolás Penson, Gascue, Santo Domingo, R. D.",https://psplbk.serviciosrd.gob.do/storage/logos/logo31.png,,1,2019-03-29 23:19:42,2022-04-04 14:03:49
Superintendencia de Electricidad,SIE,401513064,,info@sie.gov.do,http://www.sie.gob.do,superintendencia-de-electricidad,1,1,1,18,(809) 683-2500,"Av. John F. Kennedy No.3, Esq. Erick Leonard Eckman, Arroyo Hondo I",https://psplbk.serviciosrd.gob.do/storage/logos/logo32.png,88888862,1,2019-03-29 23:37:30,2019-04-01 15:49:51
Ministerio de Agricultura,AGRICULTURA,401007381,,info@agricultura.gob.do,www.agricultura.gob.do,ministerio-de-agricultura,1,1,1148,11498,(809) 547-3888,Autopista Duarte KM 6 ½ Los Jardines del Norte,https://psplbk.serviciosrd.gob.do/storage/logos/logo33.png,,1,2019-03-30 17:07:31,2022-04-04 13:58:49
"Ministerio de Industria, Comercio y MiPymes",MICM,99999999,,info@micm.gob.do,www.micm.gob.do,"ministerio-de-industria,-comercio-y-mipymes",1,1,1,30,(809) 567-7192,"TORRE MICM, Av. 27 de Febrero No. 306",https://psplbk.serviciosrd.gob.do/storage/logos/logo34.png,,1,2019-03-30 17:21:59,2022-04-04 14:01:38
Instituto Dominicano de Prevención y Protección de Riesgos Laborales,IDOPPRIL,430006612,,servicio.cliente@idoppril.gob.do,http://idoppril.gob.do/,instituto-dominicano-de-prevenciÃ³n-y-protecciÃ³n-de-riesgos-laborales,1,1,1,11500,(809) 563-2757,"Calle 43, No.18, Esq. Rafael Fernández Domínguez",https://psplbk.serviciosrd.gob.do/storage/logos/logo35.png,0,1,2019-04-01 13:23:51,2021-05-19 13:37:09
Administradora de Riesgos de Salud SEMMA,ARS SEMMA,,,info@arssemma.sld.do,http://semma.gob.do,administradora-de-riesgos-de-salud-semma,1,1,1,40,(809) 682-9848,Calle Santiago No.705,https://psplbk.serviciosrd.gob.do/storage/logos/logo36.png,,0,2019-04-01 14:22:41,2019-11-20 23:08:53
Biblioteca Nacional Pedro Henríquez Ureña,BNPHU,401031337,,info@bnphu.gob.do,http://bnphu.gob.do,biblioteca-nacional-pedro-henrÃ­quez-ureÃ±a,1,1,1,53,(829) 946-2674,Calle César Nicolás Pénson No.33,https://psplbk.serviciosrd.gob.do/storage/logos/logo37.png,888888,1,2019-04-01 15:55:53,2019-06-17 17:35:00
Centro de Capacitación en Política y Gestión Fiscal,CAPGEFI,401051745,,info@cagpgefi.gob.do,http://capgefi.gov.do,centro-de-capacitaciÃ³n-en-polÃ­tica-y-gestiÃ³n-fiscal,1,1,1,53,(809) 688-6544,"Calle Pedro A. Lluberes esq. Av. Francia, 4to Piso Edif. anexo al Ministerio de Hacienda",https://psplbk.serviciosrd.gob.do/storage/logos/logo38.png,,1,2019-04-01 16:43:21,2019-06-17 17:35:33
Universidad Autónoma de Santo Domingo,UASD,401004194,ddddd,info@uasd.edu.do,https://www.uasd.edu.do,universidad-autÃ³noma-de-santo-domingo,1,1,1,40,(809) 535-8273,Ave. Alma Máter,https://psplbk.serviciosrd.gob.do/storage/logos/logo39.png,0038,1,2019-04-02 14:20:03,2020-08-19 09:49:49
Dirección General de Jubilaciones y Pensiones a Cargo del Estado,DGJP,430061948,,infodgjp@hacienda.gov.do,http://dgjp.gob.do,direcciÃ³n-general-de-jubilaciones-y-pensiones-a-cargo-del-estado,1,1,1,53,(809) 687-2222,"Calle Federico Henríquez y Carvajal No.45, casi esquina Francia",https://psplbk.serviciosrd.gob.do/storage/logos/logo40.png,,1,2019-04-02 14:25:44,2019-06-17 10:01:07
Instituto Dominicano de Aviación Civil,IDAC,430044857,,info@idac.gov.do,http://idac.gob.do,instituto-dominicano-de-aviaciÃ³n-civil,1,1,1,11499,(809) 221-7909,Ave. México Esq. 30 de Marzo,https://psplbk.serviciosrd.gob.do/storage/logos/logo41.png,,1,2019-04-02 14:35:31,2019-06-17 17:36:28
Instituto Nacional de Tránsito y Transporte Terrestre,INTRANT,430231568,,info@intrant.gob.do,http://intrant.gob.do,instituto-nacional-de-trÃ¡nsito-y-transporte-terrestre,1,1,1,11500,(809) 338-6134,Calle Pepillo Salcedo frente al Estadio Quisqueya,https://psplbk.serviciosrd.gob.do/storage/logos/logo42.png,,1,2019-04-02 14:51:31,2019-06-17 17:36:42
Consejo Nacional de la Persona Envejeciente,CONAPE,430027936,,info@conape.gob.do,http://conape.gob.do,consejo-nacional-de-la-persona-envejeciente,1,1,1,53,(809) 688-4433,Calle Santiago No.4,https://psplbk.serviciosrd.gob.do/storage/logos/logo43.png,,1,2019-04-02 16:24:51,2019-06-17 17:45:44
Seguro Nacional de Salud,SENASA,401516454,,arssenasa@arssenasa.gov.do,http://arssenasa.gob.do,seguro-nacional-de-salud,1,1,1,41,(809) 333-3822,Avenida 27 de Febrero casi Esq. Tiradentes,https://psplbk.serviciosrd.gob.do/storage/logos/logo44.png,,1,2019-04-03 13:41:45,2019-05-24 16:49:56
Gabinete de Coordinación de Políticas Sociales,GCPS,424002126,,contacto@gabsocial.gob.do,https://gabinetesocial.gob.do/#,gabinete-de-coordinaciÃ³n-de-polÃ­ticas-sociales,1,1,1,31,(809) 534-2105,"Ave. Leopoldo Navarro #61, Edif. San Rafael, 2do. Nivel. Ensanche San Juan Bosco.",https://psplbk.serviciosrd.gob.do/storage/logos/logo45.png,,1,2019-04-03 14:08:25,2019-06-17 17:36:06
Ministerio de Administración Pública,MAP,401036746,,info@map.gob.do,https://map.gob.do,ministerio-de-administraciÃ³n-pÃºblica,1,1,1,22,(809) 682-3298,Ave. 27 de Febrero No.419,https://psplbk.serviciosrd.gob.do/storage/logos/logo46.png,,1,2019-04-03 14:21:16,2019-06-17 17:37:43
Dirección General del Catastro Nacional,DGCN,88888888,,contacto@catastro.gob.do,http://catastro.gob.do,direcciÃ³n-general-del-catastro-nacional,1,1,1,38,(809) 535-7115,"Av. Jiménez Moya esq. Av. Independencia, Centro de los Héroes, Santo Domingo, Rep. Dom",https://psplbk.serviciosrd.gob.do/storage/logos/logo47.png,88888888,1,2019-04-03 15:09:10,2019-06-17 10:08:24
Archivo General de la Nación,AGN,88888888,,info@agn.gob.do,http://www.agn.gob.do,archivo-general-de-la-naciÃ³n,1,1,1,13,(809) 362-1111,C/ General Modesto Díaz #2,https://psplbk.serviciosrd.gob.do/storage/logos/logo48.png,88888,1,2019-04-03 19:33:53,2019-06-17 17:34:04
Ministerio de Energía y Minas,MEM,430146366,416769d2-2468-41b5-917f-8dfe4aa0383d,info@mem.gob.do,https://mem.gob.do,ministerio-de-energÃ­a-y-minas,1,1,1,42,(809) 373-1800,"Ave. Tiradentes No.53, esquina Heriberto Pieter, Bloque B",https://psplbk.serviciosrd.gob.do/storage/logos/logo49.png,0014,1,2019-04-04 14:13:27,2019-08-27 17:01:54
Cuerpo Especializado de Seguridad Turistica,CESTUR,888888,,infor@cestur.gob.do,http://cestur.gob.do,cuerpo-especializado-de-seguridad-turistica,1,1,1,11507,(809) 222-2026,"Gustavo Mejía Ricart No.121, Esq. Teodoro Chasseriau",https://psplbk.serviciosrd.gob.do/storage/logos/logo50.png,888888,1,2019-04-04 14:21:37,2019-04-08 16:55:55
Consultoría Jurídica del Poder Ejecutivo,CJPE,401518211,,iconsultoriajuridica@consultoria.gov.do,http://www.consultoria.gov.do,consultorÃ­a-jurÃ­dica-del-poder-ejecutivo,1,1,1,53,(809) 695-8000,"Ave. México esq. Dr. Delgado, Palacio de la Presidencia de la República",https://psplbk.serviciosrd.gob.do/storage/logos/logo51.png,,1,2019-04-04 14:53:20,2019-06-17 17:38:33
Instituto Nacional de Formación Técnico Profesional,INFOTEP,401051788,,contacto@infotep.gob.do,http://infotep.gov.do,instituto-nacional-de-formaciÃ³n-tÃ©cnico-profesional,1,1,1,51,(809) 566-4161,Calle Paseo de Los Ferreteros #3,https://psplbk.serviciosrd.gob.do/storage/logos/logo52.png,,1,2019-04-04 15:15:22,2019-06-17 17:39:44
Oficina Nacional de la Propiedad Industrial,ONAPI,401517231,,servicioalcliente@onapi.gob.do,http://onapi.gob.do,oficina-nacional-de-la-propiedad-industrial,1,1,1,14,(809) 567-7474,Ave. de Los Próceres 11,https://psplbk.serviciosrd.gob.do/storage/logos/logo53.png,,1,2019-04-04 15:51:31,2019-04-10 12:59:57
Ministerio de Salud Pública,MSP,401007398,,correo@salud.gob.do,http://www.msp.gob.do/,ministerio-de-salud-pÃºblica,1,1,1,44,(809) 541-3121,Ave.Hector Homero Hernandez Vargas (Ant. San Cristobal) esq. Ave Tiradentes,https://psplbk.serviciosrd.gob.do/storage/logos/logo54.png,,1,2019-04-05 13:50:51,2019-06-17 17:40:35
Dirección General de Aduanas,DGA,401039249,,info@dga.gov.do,http://aduanas.gob.do,direcciÃ³n-general-de-aduanas,1,1,1146,11494,(809) 547-7070,"Avenida Abraham Lincoln No.1101, casi esquina John F. Kennedy, Edificio Miguel Cocco",https://psplbk.serviciosrd.gob.do/storage/logos/logo55.png,,1,2019-04-05 14:04:36,2019-06-17 09:59:19
Ministerio de Medio Ambiente y Recursos Naturales,MIMARENA,422000421,e220dbf6-62aa-4aef-a464-90defa9a2749,info@ambiente.gob.do,http://ambiente.gob.do,ministerio-de-medio-ambiente-y-recursos-naturales,1,1,1,8,(809) 567-4300,"Ave. Cayetano Germosén, esq. Av Luperón",https://psplbk.serviciosrd.gob.do/storage/logos/logo56.png,0030,1,2019-04-05 14:12:22,2020-05-18 11:20:03
Dirección General de Ética e Integridad Gubernamental,DIGEIG,430032069,,oai@digeig.gob.do,https://digeig.gob.do,direcciÃ³n-general-de-Ãtica-e-integridad-gubernamental,1,1,1,53,(809) 685-7135,"Calle Moisés García No.9, Esq. Manuel de Jesús Galván",https://psplbk.serviciosrd.gob.do/storage/logos/logo57.png,,1,2019-04-05 14:39:42,2019-06-17 10:00:40
Empresa de Generación Hidroeléctrica Dominicana,EGEHID,430060852,,info@hidroelectrica.gov.do,http://egehid.com.do,empresa-de-generaciÃ³n-hidroelÃ©ctrica-dominicana,1,1,1,30,(809) 533-5555,Avenida Rómulo Betancourt No.303,https://psplbk.serviciosrd.gob.do/storage/logos/logo58.png,,1,2019-04-05 16:13:52,2019-06-17 17:39:22
Superintendencia de Salud y Riesgos Laborales,SISALRIL,424002037,,oai@sisalril.gob.do,http://www.sisalril.gov.do,superintendencia-de-salud-y-riesgos-laborales,1,1,1,32,(809) 227-0714,"Av.27 de Febrero # 261, Ensanche Piantini, Edificio SISALRIL",https://psplbk.serviciosrd.gob.do/storage/logos/logo59.png,,1,2019-04-08 13:42:37,2019-04-08 13:42:37
Ministerio Administrativo de la Presidencia,MAPRE,401036797,,info@presidencia.gob.do,https://mapre.gob.do,ministerio-administrativo-de-la-presidencia,1,1,1,53,(809) 701-8000,Avenida México Esq. Doctor Delgado,https://psplbk.serviciosrd.gob.do/storage/logos/logo60.png,,1,2019-04-08 15:37:58,2019-05-24 16:57:19
Ministerio de Obras Públicas y Comunicaciones,MOPC,401007401,,contacto@mopc.gob.do,http://www.mopc.gob.do/,ministerio-de-obras-pÃºblicas-y-comunicaciones,1,1,1,11500,(809) 565-2811,Calle Héctor Homero Hernández esq. Horacio Blanco Fombona,https://psplbk.serviciosrd.gob.do/storage/logos/logo61.png,,1,2019-04-09 13:27:22,2019-06-17 17:40:11
Ministerio de la Mujer,MMujer,401500647,,info@mmujer.gob.do,https://mujer.gob.do/,ministerio-de-la-mujer,1,1,1,53,(809) 685-3755,"AV. MÉXICO ESQ. 30 DE MARZO, BLOQUE D, SEGUNDO PISO, FRENTE AL PALACIO PRESIDENCIAL",https://psplbk.serviciosrd.gob.do/storage/logos/logo62.png,,1,2019-04-09 14:46:40,2022-03-30 12:10:18
Ministerio de la Juventud,MJ,401052962,,info@juventud.gob.do,http://juventud.gob.do,ministerio-de-la-juventud,1,1,1,33,(809) 508-7227,"Ave. Jiménez de Moya, No. 71, Esq. Calle Desiderio Arias",https://psplbk.serviciosrd.gob.do/storage/logos/logo63.png,,1,2019-04-09 14:51:48,2019-04-09 14:51:48
Ministerio de Trabajo,MIT,401007363,,info@mt.gob.do,https://mt.gob.do,ministerio-de-trabajo,1,1,1,38,(809) 535-4404,Ave. Enrique Jiménez Moya # 5,https://psplbk.serviciosrd.gob.do/storage/logos/logo64.png,,1,2019-04-09 15:28:01,2022-05-17 15:09:03
Central de Apoyo Logístico,PROMESECAL,401518279,,serviciosalcliente@promesecal.gob.do,http://promesecal.gob.do,central-de-apoyo-logÃ­stico,32,222,1118,11305,(829) 893-4764,"Av. Charles de Gaulle, Esq. Alejandro Guillen",https://psplbk.serviciosrd.gob.do/storage/logos/logo65.png,,0,2019-04-09 15:34:54,2022-02-25 10:01:44
Instituto Nacional de Protección de los Derechos del Consumidor,PROCONSUMIDOR,430043923,,info@proconsumidor.gob.do,https://proconsumidor.gob.do/concurso.php,instituto-nacional-de-protecciÃ³n-de-los-derechos-del-consumidor,1,1,1,21,(809) 567-8555,Ave. Charles Summer #33,https://psplbk.serviciosrd.gob.do/storage/logos/logo66.png,,1,2019-04-09 15:52:50,2019-06-17 17:41:54
"Dirección General de Medicamentos, Alimentos y Productos Sanitarios",DIGEMAPS,88888888,,info@ministeriodesalud.gob.do,http://digemaps.msp.gob.do/digemaps/menu/,"direcciÃ³n-general-de-medicamentos,-alimentos-y-productos-sanitarios",1,1,1,44,(809) 541-3129,Ave. Tiradentes Esq. Héctor Homero Hernández,https://psplbk.serviciosrd.gob.do/storage/logos/logo67.png,88888,1,2019-04-09 19:50:18,2019-06-17 17:47:31
Dirección General de Seguridad de Tránsito y Transporte Terrestre,DIGESETT,88888888,,info@digesett.gob.do,http://www.digesett.gob.do,direcciÃ³n-general-de-seguridad-de-trÃ¡nsito-y-transporte-terrestre,1,1,1,56,(809) 686-6520,Ave. Expreso V Centenario Esq. San Martín,https://psplbk.serviciosrd.gob.do/storage/logos/logo68.png,888888,1,2019-04-09 22:36:12,2019-06-17 10:04:00
Reciclaje,de Servicios,,,Reciclaje@reciclaje.com,https://test.gob.do/,reciclaje,4,24,109,755,(809) 345-3453,2345234532,https://psplbk.serviciosrd.gob.do/storage/logos/logo69.png,,0,2019-04-10 19:52:16,2022-02-03 11:55:51
Institucion de Prueba,IDPP,17148680,,a.aranguren@concentra.com.do,www.google.com/aam,institucion-de-prueba,1,1,1,23,(829) 786-0787,"Calle 9 con Jesus Maestro, Mirador Norte",https://psplbk.serviciosrd.gob.do/storage/logos/logo70.png,,0,2019-04-22 19:28:47,2019-05-21 18:11:10
Institucion de Prueba 4,IDP4,17148680,,aliriomiguel@yahoo.es,www.google.com/aam4,institucion-de-prueba-4,1,1,1,23,(829) 456-7893,"Calle 9 con Jesus Maestro, Mirador Norte",https://psplbk.serviciosrd.gob.do/storage/logos/logo71.png,,0,2019-04-23 12:57:09,2020-08-13 16:32:39
Dirección General de Minería,DGM,401037203,a0c8bafd-b3d6-459c-9639-5d14db2b504b,direccion.general@dgm.gov.do,http://dgm.gov.do,direcciÃ³n-general-de-minerÃ­a,1,1,1,53,(809) 685-8191,"Ave. Avenida México Esq. Leopoldo Navarro, Edificio Gubernamental Juan Pablo Duarte, Piso 10",https://psplbk.serviciosrd.gob.do/storage/logos/logo72.png,0017,1,2019-04-23 16:25:35,2022-07-13 15:56:58
Comisión Nacional de Energía,CNE,88888888,888888,cne-info@cne.gob.do,https://www.cne.gob.do,comisiÃ³n-nacional-de-energÃ­a,1,1,1,30,(809) 540-9002,"Ave. Rómulo Betancourt No. 361, Bella Vista Santo Domingo, República Dominicana",https://psplbk.serviciosrd.gob.do/storage/logos/logo73.png,8888,1,2019-05-07 16:41:16,2019-06-14 15:44:56
Instituto de Innovacion en Biotecnologia e Industria,IIBI,88888888,41163304-2df5-420f-8123-536816f2a0b3,servicios@iibi.gob.do,http://www.iibi.gob.do,instituto-de-innovacion-en-biotecnologia-e-industria,1,1,1,13,(809) 566-8121,Calle Olof Palme Esq. Núñez de Cáceres,https://psplbk.serviciosrd.gob.do/storage/logos/logo74.png,0015,1,2019-05-07 16:45:31,2019-06-30 15:26:05
Dirección General de Cine,DGCINE,430108464,c00fceab-3c1f-4f17-93cd-7711475d4e00,info@dgcine.gob.do,http://www.dgcine.gob.do,direcciÃ³n-general-de-cine,1,1,1,53,(809) 687-2166,Calle Cayetano Rodríguez No.154,https://des-psplbk.serviciosrd.gob.do/storage/logos/logo45.png,0024,1,2019-05-07 16:48:56,2021-05-07 10:04:38
Oficina Nacional de Derecho de Autor,ONDA,401508796,674ac5da-b5ae-4e25-aadb-81d3f056b421,info@onda.gob.do,http://onda.gob.do,oficina-nacional-de-derecho-de-autor,1,1,1,32,(829) 593-6632,Paseo de los Locutores #28,https://des-psplbk.serviciosrd.gob.do/storage/logos/logo39.png,0016,1,2019-05-08 14:36:05,2021-05-11 10:48:59
Consejo Nacional de Investigaciones Agropecuarias y Forestales,CONIAF,99999999,99999,info@coniaf.gob.do,http://www.coniaf.gob.do,consejo-nacional-de-investigaciones-agropecuarias-y-forestales,1,1,1,53,(809) 686-0750,"Ave. Felix Maria del Monte # 8, esq. César Nicolás Penson",https://psplbk.serviciosrd.gob.do/storage/logos/logo77.png,99999,1,2019-05-16 11:17:42,2019-05-16 11:17:42
Comisión Nacional de Defensa de la Competencia,PROCOMPETENCIA,88888888,88888888,oai@procompetencia.gob.do,https://www.procompetencia.gob.do,comisiÃ³n-nacional-de-defensa-de-la-competencia,1,1,1,53,(809) 338-4005,Calle Caonabo Número 33,https://psplbk.serviciosrd.gob.do/storage/logos/logo78.png,8888888888,0,2019-05-24 17:57:46,2022-04-25 14:16:05
Armada de la República Dominicana,ARMADA RD,88888888,,info@marina.mil.do,http://www.marina.mil.do/portal/,armada-de-la-repÃºblica-dominicana,32,218,1104,11164,(809) 593-5900,"Ave. España Punta Torresilla, Sans Souci",https://psplbk.serviciosrd.gob.do/storage/logos/logo79.png,,1,2019-06-04 15:18:19,2020-07-15 11:05:06
Oficina Nacional de Estadística,ONE,88888888,,info@one.gob.do,http://www.one.gob.do,oficina-nacional-de-estadÃ­stica,1,1,1,53,(809) 682-7777,"Av. México esq. Leopoldo Navarro Edificio de Oficinas Gubernamentales Juan Pablo Duarte, piso 9",https://psplbk.serviciosrd.gob.do/storage/logos/logo80.png,,1,2019-06-11 08:40:05,2019-06-17 17:43:03
Autoridad Nacional de Asuntos Marítimos,ANAMAR,430085121,,info@anamar.gob.do,www.anamar.gob.do,autoridad-nacional-de-asuntos-marÃ­timos,1,1,1,19,(809) 732-5169,"Ave. Abraham Lincoln 1069, Torre Ejecutiva Sonora, Suite 201",https://psplbk.serviciosrd.gob.do/storage/logos/logo81.png,,1,2019-06-11 10:50:21,2021-11-15 09:21:27
Corporación Dominicana de Empresas Eléctricas Estatales,CDEEE,401007673,,mediossociales@cdeee.gob.do,https://cdeee.gob.do/cdeeesite/,corporaciÃ³n-dominicana-de-empresas-elÃ©ctricas-estatales,1,1,1,38,(809) 535-1100,"Avenida Independencia #1428, esquina Ave. Enrique Jiménez Moya, Centro de los Héroes, Santo Domingo, R.D.",https://psplbk.serviciosrd.gob.do/storage/logos/logo82.png,,1,2019-06-17 16:44:11,2019-06-17 17:29:28
Consejo Nacional de Zonas Francas de Exportacion,CNZFE,401501406,f2d59d8c-6071-41b1-b2cd-d6d4f97b1929,contacto@cnzfe.gob.do,http://cnzfe.gob.do/index.php/es/,consejo-nacional-de-zonas-francas-de-exportacion,1,1,1,51,(809) 686-8077,"Ave. Leopoldo Navarro # 61, Edificio San Rafael, 5to Piso",https://psplbk.serviciosrd.gob.do/storage/logos/logo83.png,0021,1,2019-06-18 09:57:07,2019-08-27 17:04:20
Supérate,Supérate,430029459,,contacto@superate.gob.do,https://superate.gob.do/,supÃ©rate,1,1,1,52,(809) 534-2105,"Ave. Leopoldo Navarro #61, Edif. San Rafael, 6to. Nivel",https://psplbk.serviciosrd.gob.do/storage/logos/logo84.png,,1,2019-06-24 09:56:23,2022-08-25 00:59:54
Instituto Dominicano de Investigaciones Agropecuarias y Forestales,IDIAF,,,idiaf@idiaf.gov.do,http://idiaf.gob.do/,instituto-dominicano-de-investigaciones-agropecuarias-y-forestales,1,1,1,11499,(809) 567-8999,Rafael Augusto Sánchez #89,https://psplbk.serviciosrd.gob.do/storage/logos/logo85.png,,1,2019-06-27 12:54:14,2019-06-28 09:06:53
Banca Solidaria,BS,,,info@bancasolidaria.gob.do,https://bancasolidaria.gob.do/,banca-solidaria,1,1,1,24,(809) 473-6089,"Avenida 27 de Febrero No. 522, próximo a la calle Caonabo",https://psplbk.serviciosrd.gob.do/storage/logos/logo86.png,,1,2019-06-27 14:55:54,2019-07-22 08:25:32
Dirección General de Contabilidad Gubernamental,DIGECOG,,,oai@digecog.gob.do,http://digecog.gob.do/,direcciÃ³n-general-de-contabilidad-gubernamental,1,1,1,53,(809) 688-9101,"Pedro A. Lluberes # 20278, Esquina Francia, 2do. Nivel",https://psplbk.serviciosrd.gob.do/storage/logos/logo87.png,,1,2019-07-24 12:26:17,2019-11-11 12:12:26
Cuerpo Especializado en Seguridad Fronteriza Terrestre,CESFRONT,,,cesfrontsefa@hotmail.com,http://cesfront.mil.do/,cuerpo-especializado-en-seguridad-fronteriza-terrestre,1,1,1,32,(809) 732-3870,"Ave. Lope de Vega, Plaza Comercial Lope de Vega, No. 100, 2do nivel, local B9",https://psplbk.serviciosrd.gob.do/storage/logos/logo88.png,,1,2019-07-29 12:50:01,2019-07-29 15:32:48
Ministerio de Defensa de República Dominicana,MIDE,,,informacion@mide.gob.do,https://www.mide.gob.do,ministerio-de-defensa-de-repÃºblica-dominicana,1,1,1,12,(809) 530-5149,Ave. 27 de Febrero esquina Ave. Luperón,https://psplbk.serviciosrd.gob.do/storage/logos/logo89.png,,1,2019-07-30 09:54:31,2019-07-30 10:06:06
Corporacion de Acueductos y Alcantarillados de Puerto Plata,CORAAPPLATA,,,info@coraapplata.gob.do,www.coraapplata.gob.do/,corporacion-de-acueductos-y-alcantarillados-de-puerto-plata,18,119,585,5065,(809) 586-2461,Calle Villanueva No. 44,https://psplbk.serviciosrd.gob.do/storage/logos/logo90.png,,1,2019-08-01 09:06:56,2019-08-01 11:53:39
Jardín Botánico Nacional Dr. Rafael Ma. Moscoso RD,JBN,401048825,41a81fee-26e5-47b6-95af-186633aec5b0,jardinbotanico@jbn.gob.do,http://www.jbn.gob.do,jardÃ­n-botÃ¡nico-nacional-dr.-rafael-ma.-moscoso-rd,1,1,1,15,(809) 385-2611,"Av. República de Colombia esq. Av. Los Próceres,",https://psplbk.serviciosrd.gob.do/storage/logos/logo91.png,0025,1,2019-10-02 18:28:25,2020-05-18 11:37:05
Consejo Nacional para el Cambio Climatico y Mecanismo de Desarrollo Limpio,CNCCMDL,,,oai@cambioclimatico.gob.do,https://www.cambioclimatico.gob.do,consejo-nacional-para-el-cambio-climatico-y-mecanismo-de-desarrollo-limpio,1,1,1,41,(809) 472-0537,"Ave. 27 Febrero Esq. Alma Mater, Torre Friusa, 7mo piso, La Esperilla, 10107",https://psplbk.serviciosrd.gob.do/storage/logos/logo92.png,,1,2019-10-19 18:39:48,2019-10-19 18:40:12
Ministerio de la Presidencia,MINPRE,,,MINPRE@PRESIDENCIA.GOB.DO,https://www.minpre.gob.do,ministerio-de-la-presidencia,1,1,1,53,(809) 695-8033,"AV. MÉXICO ESQ. CALLE DR. DELGADO,",https://psplbk.serviciosrd.gob.do/storage/logos/logo93.png,,1,2019-10-19 22:34:17,2019-10-19 22:34:17
Hospital Pediátrico Hugo Mendoza,HPHM,,,info@hhm.gob.do,http://hospitalhugomendoza.gob.do/,hospital-pediÃ¡trico-hugo-mendoza,32,222,1118,11305,(809) 568-8222,"Av. Konrad Adenauer (Prol. Charles de Gaulle), Santo Domingo Norte, Rep. Dom.",https://psplbk.serviciosrd.gob.do/storage/logos/logo94.jpg,,1,2019-10-21 16:06:56,2019-10-24 12:30:21
Unidad de Analisis Financiero de la Republica Dominicana,UAF,,,info@uaf.gov.do,https://www.uaf.gob.do/,unidad-de-analisis-financiero-de-la-republica-dominicana,1,1,1,53,(809) 682-0140,Calle Federico Henríquez y Carvajal No. 11,https://psplbk.serviciosrd.gob.do/storage/logos/logo95.png,,1,2019-10-22 09:06:57,2019-10-22 09:07:17
Hospital Traumatológico y Quirúrgico Profesor Juan Bosch,HTQPJB,,,info@hospitaljuanbosch.gov.do,http://www.hospitaljuanbosch.gob.do/,hospital-traumatolÃ³gico-y-quirÃºrgico-profesor-juan-bosch,13,84,405,3606,(809) 725-8262,"Autopista Duarte KM 101, Carretera Bonao- La Vega, República Dominicana",https://psplbk.serviciosrd.gob.do/storage/logos/logo96.png,,1,2019-11-08 15:06:26,2019-11-08 16:20:41
Centro de Desarrollo y Competitividad Industrial,PROINDUSTRIA,,,oai@proindustria.gov.do,http://www.proindustria.gob.do/,centro-de-desarrollo-y-competitividad-industrial,1,1,1,10,(809) 530-0010,"Ave. 27 de Febrero esq. Av. Luperón, Plaza de la Bandera, Santo Domingo, Rep. Dom.",https://psplbk.serviciosrd.gob.do/storage/logos/logo97.png,,1,2019-11-13 10:11:32,2019-11-13 10:15:06
Instituto Dominicano para la Calidad,INDOCAL,,e703927c-e546-4198-9cef-d4e80b9ec3d3,servicioalcliente@indocal.gob.do,https://www.indocal.gob.do/,instituto-dominicano-para-la-calidad,1,1,1,13,(809) 686-2205,"C/Olof Palme esq. Núñez de Cáceres San Gerónimo,",https://psplbk.serviciosrd.gob.do/storage/logos/logo98.png,0019,1,2019-11-14 12:56:51,2020-03-06 10:51:55
Direccion General de Presupuesto,DIGEPRES,,,info@digepres.gob.do,www.digepres.gob.do/,direccion-general-de-presupuesto,1,1,1,53,(809) 687-7121,"Av. México esq. Leopoldo Navarro, Edificio Gubernamental Juan Pablo Duarte, 5to. piso, Sector Gazcue.",https://psplbk.serviciosrd.gob.do/storage/logos/logo99.png,,1,2019-11-20 18:59:58,2019-11-27 15:36:28
Administradora de Subsidios Sociales,ADESS,,,info@adess.gob.do,http://www.adess.gob.do/,administradora-de-subsidios-sociales,1,1,1,20,(809) 565-0009,"Edificio Adess, Avenida Gustavo Mejía Ricart N.º 141, Ensanche Julieta, Santo Domingo, Distrito Nacional",https://psplbk.serviciosrd.gob.do/storage/logos/logo100.png,,1,2019-11-22 08:45:31,2019-11-22 08:45:31
Dirección General de Información y Defensa de los Afiliados a la Seguridad Social,DIDA,,,info@dida.gob.do,http://www.dida.gob.do,direcciÃ³n-general-de-informaciÃ³n-y-defensa-de-los-afiliados-a-la-seguridad-social,1,1,1,42,(809) 472-1900,"Av. Tiradentes No. 33, Ensanche Naco. Torre de la Seguridad Social Presidente Antonio Guzmán Fernández, 1ro y 4to piso",https://psplbk.serviciosrd.gob.do/storage/logos/logo101.png,,1,2019-12-02 21:30:05,2022-08-03 16:26:11
Hospital Materno Dr. Reynaldo Almanzar,HMRA,,,info@hmra.gob.do,http://hmra.gob.do/,hospital-materno-dr.-reynaldo-almanzar,32,222,1118,11305,(809) 568-8282,"Avenida Charles De Gaulle, Villa Mella",https://psplbk.serviciosrd.gob.do/storage/logos/logo102.png,,1,2019-12-10 08:56:56,2021-07-28 15:11:47
Instituto de Estabilización de Precios,INESPRE,,,informacion@inespre.gob.do,https://inespre.gov.do/,instituto-de-estabilizaciÃ³n-de-precios,1,1,1,1,(809) 621-0020,"Av. 27 de Febrero, Plaza de la Bandera, Santo Domingo",https://psplbk.serviciosrd.gob.do/storage/logos/logo103.png,,1,2019-12-11 15:26:50,2019-12-11 15:52:07
Unidad de Electrificacion Rural y Sub-Urbana,UERS,,,info@uers.gob.do,http://uers.gob.do/,unidad-de-electrificaciÃ³n-rural-y-sub-urbana,1,1,1,41,(809) 227-7666,José Andrés Aybar #136,https://psplbk.serviciosrd.gob.do/storage/logos/logo104.png,,1,2019-12-13 11:51:25,2019-12-13 11:51:25
Ejército de República Dominicana,ERD,,,info@ejercito.mil.do,https://www.ejercito.mil.do/,ejÃ©rcito-de-repÃºblica-dominicana,32,224,1135,11435,(809) 473-8000,"Autopista Duarte Km. 25 , Campamento Militar 16 de Agosto",https://psplbk.serviciosrd.gob.do/storage/logos/logo105.png,,1,2019-12-13 16:52:23,2019-12-13 17:31:19
Instituto Agrario Dominicano,IAD,,,contacto@iad.gob.do,https://iad.gob.do/,instituto-agrario-dominicano,1,1,1,11,(809) 620-6585,"Ave. 27 de Febrero, Plaza de la Bandera",https://psplbk.serviciosrd.gob.do/storage/logos/logo106.png,,1,2019-12-26 11:47:17,2019-12-26 11:47:17
Instituto Azucarero Dominicano,INAZUCAR,,,info@inazucar.gov.do,https://www.inazucar.gov.do/,instituto-azucarero-dominicano,1,1,1,39,(809) 532-5571,Ave. Enrique Jiménez Moya # 667,https://psplbk.serviciosrd.gob.do/storage/logos/logo107.jpg,,1,2019-12-26 11:58:14,2019-12-26 11:58:14
Superintendencia de Vigilancia y Seguridad Privada,SVSP,,a5cb6190-f06d-4d23-9fa8-5b46d7c59aaa,info@svsp.gob.do,http://svsp.gob.do/,superintendencia-de-vigilancia-y-seguridad-privada,1,1,1,53,(829) 893-4080,"Ave. José Contreras #14, Gazcue, Santo Domingo, R.D",https://psplbk.serviciosrd.gob.do/storage/logos/logo108.png,0026,1,2020-01-02 10:42:03,2020-01-08 11:00:02
Centro Nacional de Ciberseguridad,CNCS,,,contacto@cncs.gob.do,https://cncs.gob.do/,centro-nacional-de-ciberseguridad,1,1,1,53,(809) 695-8033,"Av. México esq. calle Dr. Delgado, Palacio Nacional",https://psplbk.serviciosrd.gob.do/storage/logos/logo109.png,,1,2020-01-07 16:56:28,2020-01-07 16:56:28
Consejo Dominicano de Pesca y Acuicultura,CODOPESCA,,,info@codopesca.gob.do,http://www.codopesca.gob.do/,consejo-dominicano-de-pesca-y-acuicultura,1,1,1,14,(809) 338-0802,"Autopista Duarte, Km. 6 1/2, Edif. Agricultura",https://psplbk.serviciosrd.gob.do/storage/logos/logo110.jpg,,1,2020-01-07 17:02:52,2020-01-07 17:02:52
Consejo Nacional de Discapacidad,CONADIS,,,info@conadis.gob.do,http://conadis.gob.do/,consejo-nacional-de-discapacidad,1,1,1,51,(809) 687-5480,C/ Proyecto 27 de Febrero #12,https://psplbk.serviciosrd.gob.do/storage/logos/logo111.png,,1,2020-01-07 17:10:04,2020-01-07 17:10:04
Cuerpo Especializado en Seguridad Aeroportuaria y de la Aviacion Civil,CESAC,,,contacto@cesa.mil.do,http://cesac.mil.do/,cuerpo-especializado-en-seguridad-aeroportuaria-y-de-la-aviaciÃ³n-civil,32,218,1104,11160,(809) 549-8026,"Calle Ing. Zoilo Hermógenes García # 419, Antigua Prolongación Ruta 66",https://psplbk.serviciosrd.gob.do/storage/logos/logo112.png,,1,2020-01-07 17:14:54,2020-01-07 17:14:54
Direccion Nacional de Control de Drogas,DNCD,,,info@dncd.mil.do,https://www.dncd.gob.do/,direcciÃ³n-nacional-de-control-de-drogas,1,1,1,11510,(809) 221-4166,"Ave. Máximo Gómez # 70, casi esq. Ave. Mexico,",https://psplbk.serviciosrd.gob.do/storage/logos/logo113.png,,1,2020-01-07 17:18:55,2020-01-07 17:18:55
Empresa de Transmision Electrica Dominicana,ETED,,,info@eted.gob.do,http://www.eted.gov.do/,empresa-de-transmisiÃ³n-elÃ©ctrica-dominicana,1,1,1,30,(809) 255-5555,Av. Rómulo Betancourt 1228,https://psplbk.serviciosrd.gob.do/storage/logos/logo114.jpg,,1,2020-01-08 08:35:36,2020-01-08 08:35:36
Instituto Nacional de Aguas Potables y Alcantarillados,INAPA,401007452,,info@inapa.gob.do,http://www.inapa.gob.do/,instituto-nacional-de-aguas-potables-y-alcantarillados,1,1,1,22,(809) 567-1241,"Calle Guarocuya # 419, Edificio INAPA, Centro Comercial El Millón",https://psplbk.serviciosrd.gob.do/storage/logos/logo115.jpg,,1,2020-01-08 08:41:02,2021-07-20 12:10:36
Instituto Dominicano del Cafe,INDOCAFE,,,info@indocafe.gob.do,http://www.indocafe.gob.do/,instituto-dominicano-del-cafe,1,1,1,11499,(809) 533-1984,"Calle Nicolás Ureña de Mendoza No. 117, Ens. Los Prados, Distrito Nacional, Santo Domingo.",https://psplbk.serviciosrd.gob.do/storage/logos/logo116.png,,1,2020-01-08 08:45:12,2022-09-08 00:19:30
"Ministerio de Economia, Planificacion y Desarrollo",MEPyD,,,informacion@economia.gob.do,http://mepyd.gob.do/,"ministerio-de-economÃ­a,-planificaciÃ³n-y-desarrollo",1,1,1,53,(809) 688-7000,Av. México Esq. Dr. Delgado,https://psplbk.serviciosrd.gob.do/storage/logos/logo117.png,,1,2020-01-08 08:52:13,2020-01-08 08:52:13
Ministerio de Cultura,MINC,,,accesoainfo@minc.gob.do,http://www.cultura.gob.do/,ministerio-de-cultura,1,1,1,53,(809) 221-4141,Ave. George Washington esq. Pte. Vicini Burgos,https://psplbk.serviciosrd.gob.do/storage/logos/logo118.png,,1,2020-01-08 08:58:46,2020-01-08 08:58:46
Ministerio de Relaciones Exteriores,MIREX,,,relexteriores@mirex.gob.do,https://www.mirex.gob.do/,ministerio-de-relaciones-exteriores,1,1,1,13,(809) 987-7001,"Avenida Independencia No. 752, Estancia San Gerónimo",https://psplbk.serviciosrd.gob.do/storage/logos/logo119.png,,1,2020-01-08 09:07:42,2020-01-08 09:07:42
Policia Nacional Dominicana,PN,,,info@policianacional.gob.do,http://www.policianacional.gob.do/,policia-nacional-dominicana,1,1,1,53,(809) 682-2151,Avenida Leopoldo Navarro No. 402,https://psplbk.serviciosrd.gob.do/storage/logos/logo120.png,,1,2020-01-08 09:14:23,2020-01-08 09:14:23
Sistema Nacional de Atencion a Emergencias y Seguridad 9-1-1,911,,,info@911.gob.do,https://911.gob.do/,sistema-nacional-de-atenciÃ³n-a-emergencias-y-seguridad-9-1-1,1,1,1,33,(809) 688-9911,Av. Abraham Lincoln #69 esquina Dr. Nuñez y Domínguez,https://psplbk.serviciosrd.gob.do/storage/logos/logo121.png,,1,2020-01-08 09:22:08,2020-01-08 09:22:08
Junta de Retiro y Fondo de Pensiones de las Fuerzas Armadas,JRFP-FFAA,,,juntaderetiro@juntaderetiroffaa.gob.do,http://juntaderetiroffaa.gob.do/,junta-de-retiro-y-fondo-de-pensiones-de-las-fuerzas-armadas,1,1,1,11,(809) 537-1052,"Av. 27 de Febrero, esquina Av. Luperón",https://psplbk.serviciosrd.gob.do/storage/logos/logo122.png,,1,2020-01-16 17:23:51,2020-01-16 17:23:51
Cuerpo Especializado para la Seguridad del Metro,CESMET,,,info@cesmet.mil.do,http://www.cesmet.mil.do,cuerpo-especializado-para-la-seguridad-del-metro,32,222,1118,11305,(809) 797-7200,"C/ Hermanas Mirabal No. 1, El Polvorín",https://psplbk.serviciosrd.gob.do/storage/logos/logo123.png,,1,2020-01-29 12:09:21,2020-01-29 12:09:21
Servicio Regional de Salud Metropolitano,SRSM,,,metropolitano@srsm.gob.do,http://www.srsm.gob.do/,servicio-regional-de-salud-metropolitano,1,1,1,53,(809) 221-2332,Dr. Delgado No. 304,https://psplbk.serviciosrd.gob.do/storage/logos/logo124.jpg,,1,2020-02-13 15:31:21,2020-02-13 15:31:21
Comision Presidencial de Apoyo al Desarrollo Provincial,CPADP,,,info@cpadp.gob.do,http://www.cpadp.gob.do,comision-presidencial-de-apoyo-al-desarrollo-provincial,1,1,1,53,(809) 364-2189,Ave Dr. Delgado Esq. Moisés García,https://psplbk.serviciosrd.gob.do/storage/logos/logo125.png,,1,2020-02-17 12:10:30,2020-03-19 15:33:00
Consejo Nacional de Competitividad,CNC,,,contacto@competitividad.gob.do,http://www.competitividad.gob.do,consejo-nacional-de-competitividad,1,1,1,30,(809) 476-7262,"Av. Jimenez Moya No. 32, Edificio Franco-Acra, 4to Piso",https://psplbk.serviciosrd.gob.do/storage/logos/logo126.png,,1,2020-02-19 09:10:42,2020-02-19 17:12:58
Conservatorio Nacional de Música,CNM,,,direccioncnmrd@gmail.com,http://conservatoriord.gob.do/,conservatorio-nacional-de-mÃºsica,1,1,1,33,(809) 689-4642,Ave. Alma Mater Esq. Pedro Henriquez Ureña,https://psplbk.serviciosrd.gob.do/storage/logos/logo127.png,0039,1,2020-02-24 15:50:26,2020-07-31 13:04:46
Corporacion de Acueducto y Alcantarillado de la Romana,COAAROM,,b6aa7fad-0555-460b-add1-049e13b5ba76,info@coaarom.gob.do,http://www.coaarom.gob.do,corporacion-de-acueducto-y-alcantarillado-de-la-romana,12,82,398,3441,(809) 556-1258,"Teófilo Ferry Esq. Larimar, Altos",https://psplbk.serviciosrd.gob.do/storage/logos/logo128.png,0029,1,2020-02-26 16:58:48,2020-04-29 09:36:37
Superintendencia de Bancos de la Republica Dominicana,SIB,,,comunicaciones@sib.gob.do,https://www.sib.gob.do/,superintendencia-de-bancos-de-la-republica-dominicana,1,1,1,53,(809) 685-8141,Ave. México No. 52 esq. Leopoldo Navarro,https://psplbk.serviciosrd.gob.do/storage/logos/logo129.png,,1,2020-03-03 11:28:47,2020-03-03 15:29:56
Corporacion del Acueducto y Alcantarillado de La Vega,CORAAVEGA,,85e8525c-566d-4cfe-8b57-727f3f7d2d8f,info@coraavega.gob.do,https://www.coraavega.gob.do,corporacion-del-acueducto-y-alcantarillado-de-la-vega,13,84,405,3607,(809) 573-1769,Av. Pedro A. Rivera,https://psplbk.serviciosrd.gob.do/storage/logos/logo130.png,0028,1,2020-03-11 17:53:48,2020-06-15 15:45:28
Direccion de Fomento y Desarrollo de la Artesania,FODEARTE,,,info@fodearte.gob.do,www.fodearte.gob.do,direccion-de-fomento-y-desarrollo-de-la-artesania,1,1,1,40,(809) 333-8626,Ave. Independencia No.660,https://psplbk.serviciosrd.gob.do/storage/logos/logo131.png,,1,2020-03-19 11:54:49,2020-08-11 20:50:35
Consejo Nacional para el VIH y el SIDA,CONAVIHSIDA,,,info@conavihsida.gob.do,http://www.conavihsida.gob.do/,consejo-nacional-para-el-vih-y-el-sida,1,1,1,11500,(809) 732-7772,"Ave. Ortega y Gasset #419, Plaza de la Salud",https://psplbk.serviciosrd.gob.do/storage/logos/logo132.png,,1,2020-03-19 14:30:26,2020-03-19 14:30:26
Mercado Dominicanos de Abastos Agropecuario,MERCADOM,,,info@mercadom.gob.do,www.mercadom.gob.do,mercado-dominicanos-de-abastos-agropecuario,32,224,1135,11435,(829) 541-6464,"Autopista Duarte Km 22, avenida Merca Santo Domingo",https://psplbk.serviciosrd.gob.do/storage/logos/logo133.png,,1,2020-03-24 11:41:31,2020-03-24 11:41:31
Superintendencia de Seguros,SIS,401016265,0f9077cb-4a2a-4220-87e3-1ebca3103bde,oai@superseguros.gob.do,https://www.superseguros.gob.do,superintendencia-de-seguros,1,1,1,53,(809) 221-2606,"Ave. México # 54, Esq. Félix María Del Monte",https://psplbk.serviciosrd.gob.do/storage/logos/logo134.jpeg,0032,1,2020-04-01 15:53:29,2022-09-17 15:37:13
Oficina Nacional de Meteorologia,ONAMET,,599992f4-d69a-43b1-b082-e0dd842c174c,info@onamet.gob.do,http://onamet.gob.do,oficina-nacional-de-meteorologia,32,218,1104,11164,(809) 788-1122,"Av. Juan Moliné #1, Los Mameye",https://psplbk.serviciosrd.gob.do/storage/logos/logo135.png,0035,1,2020-04-01 17:52:51,2020-05-18 12:10:37
Parque Zoológico Nacional,ZOODOM,,3dac6dbb-e250-4444-ba3b-491676e4f758,parque@zoodom.gob.do,https://www.zoodom.gob.do,parque-zoolÃ³gico-nacional,1,1,1,4,(809) 378-2149,"Ave. la Vega Real, Arroyo Hondo",https://psplbk.serviciosrd.gob.do/storage/logos/logo136.png,9999,1,2020-04-06 19:19:08,2021-09-03 12:09:37
Corporación de Acueducto y Alcantarillado de Moca,CORAAMOCA,,608cbaf9-349f-489b-8719-83e91b1f51ae,info@coraamoca.gob.do,http://www.coraamoca.gob.do,corporaciÃ³n-de-acueducto-y-alcantarillado-de-moca,9,61,304,2517,(809) 578-2622,"C/ Presidente Vásquez esq. Sánchez, Edificio CORAAMOCA",https://psplbk.serviciosrd.gob.do/storage/logos/logo137.jpg,0037,1,2020-05-08 15:28:54,2020-07-17 12:30:11
Tesoreria Nacional RD,TN,,,tesorerianacional@tesoreria.gov.do,https://www.tesoreria.gob.do,tesoreria-nacional-rd,1,1,1,53,(809) 682-3033,"Avenida México # 45,",https://psplbk.serviciosrd.gob.do/storage/logos/logo138.jpg,,1,2020-06-16 14:33:39,2020-06-16 14:42:00
Cuerpo Especializado de Control de Combustibles,CECCOM,,,infoceccom@ceccom.gob.do,http://www.ceccom.gob.do,cuerpo-especializado-de-control-de-combustibles,21,138,697,6274,(809) 957-6762,"Calle D #11, Los Bajos de Haina",https://psplbk.serviciosrd.gob.do/storage/logos/logo139.jpg,,1,2020-06-17 15:20:03,2020-06-17 15:20:03
Oficina Nacional de Defensa Publica,ONDP,,,oai-ondp@defensapublica.gov.do,https://www.defensapublica.gob.do,oficina-nacional-de-defensa-publica,1,1,1,53,(809) 686-0556,C/ Danae No. 20,https://psplbk.serviciosrd.gob.do/storage/logos/logo140.png,,1,2020-06-17 18:34:31,2020-06-19 11:54:57
Corporacion del Acueducto y Alcantarillado de Santiago,CORAASAN,,,contacto@coraasan.gob.do,http://www.coraasan.gob.do/,corporacion-del-acueducto-y-alcantarillado-de-santiago,25,165,821,8099,(809) 582-4343,"Dirección: Av. Circunvalación #123, Nibaje",https://psplbk.serviciosrd.gob.do/storage/logos/logo141.jpg,,1,2020-06-29 11:01:09,2020-07-01 09:35:18
Consulado General de la Republica Dominicana en Madrid Ministerio de Relaciones Exteriores,CGRDM,,,info@consuladordmadrid.com,https://consuladordmadrid.es/,consulado-general-de-la-republica-dominicana-en-madrid-ministerio-de-relaciones-exteriores,1,1,1,1,(034) 914-3153,"Paseo de la Castellana #128, 1ro",https://psplbk.serviciosrd.gob.do/storage/logos/logo142.png,,1,2020-07-27 11:01:33,2020-07-28 10:51:24
Dirección General de Contrataciones Públicas,DGCP,,,asistenciatecnica@dgcp.gob.do,https://www.dgcp.gob.do/,direcciÃ³n-general-de-contrataciones-pÃºblicas,1,1,1,53,(809) 682-7407,"Pedro A. Lluberes, Esq. Rodríguez",https://psplbk.serviciosrd.gob.do/storage/logos/logo143.png,,1,2020-07-28 11:58:00,2020-07-28 12:01:15
Instituto Nacional de Administracion Publica,INAP,,,info@inap.gob.do,http://inap.gob.do/,instituto-nacional-de-administracion-publica,1,1,1,53,(809) 689-8955,"Ave. México esq. Leopoldo Navarro, Edificio Juan Pablo Duarte, Piso 14",https://psplbk.serviciosrd.gob.do/storage/logos/logo144.png,,1,2020-07-28 12:53:55,2020-07-28 12:55:34
Ayuntamiento Municipal de San Felipe de Puerto Plata,AMPP,,,opu@ayuntamientopuertoplata.gob.do,http://ayuntamientopuertoplata.gob.do/contacto/,ayuntamiento-municipal-de-san-felipe-de-puerto-plata,18,119,585,5063,(809) 586-2526,"C/ Separación No. 24 (frente al Parque Central) Puerto Plata, República Dominicana",https://psplbk.serviciosrd.gob.do/storage/logos/logo145.jpg,,1,2020-11-05 15:22:30,2020-11-06 15:55:51
Dirección General de Desarrollo de la Comunidad,DGDC,,,planificacion@dgdc.gob.do,http://www.dgdc.gob.do/,direcciÃ³n-general-de-desarrollo-de-la-comunidad,1,1,1,38,(809) 533-3131,"Av. George Washington & Calle Héroes de Luperón, Santo Domingo",https://psplbk.serviciosrd.gob.do/storage/logos/logo146.jpg,,1,2020-12-03 08:48:10,2020-12-03 09:21:12
Oficina Nacional De Evaluacion Sismica Y Vulnerabilidad De Intraestructura Y Ediciaciones,ONESVIE,430007872,,onesvie@claro.net.do,http://onesvie.gob.do/index.php,oficina-nacional-de-evaluacion-sismica-y-vulnerabilidad-de-intraestructura-y-ediciaciones,1,1,1,44,(809) 567-6183,"Calle Recta Final , Ensanche Quisqueya",https://psplbk.serviciosrd.gob.do/storage/logos/logo147.png,,1,2020-12-10 11:22:01,2020-12-10 11:24:11
Oficina Metropolitana de Servicios de Autobuses,OMSA,,,servicioalcliente@omsa.gob.do,servicioalcliente@omsa.gob.do,oficina-metropolitana-de-servicios-de-autobuses,32,220,1113,11253,(809) 560-5555,"Prolongación 27 de Febrero, Santo Domingo",https://psplbk.serviciosrd.gob.do/storage/logos/logo148.png,,1,2020-12-14 08:40:54,2020-12-14 12:02:54
Oficina nacional de evaluacion sismica y vulnerabilidad de infraestructura y edificaciones,ONESVIE,,,info@onesvie.gob.do,http://onesvie.gob.do/,oficina-nacional-de-evaluaciÃ³n-sÃ­smica-y-vulnerabilidad-de-infraestructura-y-edificaciones,1,1,1,44,(809) 567-6183,"Calle Recta Final, Ensanche La Fe, Distrito Nacional.",https://psplbk.serviciosrd.gob.do/storage/logos/logo149.jpg,,0,2020-12-15 16:43:14,2020-12-18 13:17:10
Instituto nacional de migracion,INM,,,info@inm.gob.do,http://www.inm.gob.do/,instituto-nacional-de-migraciÃ³n,1,1,1,53,(809) 412-0666,C/ Manuel Rodríguez Objío No. 12 Santo Domingo,https://psplbk.serviciosrd.gob.do/storage/logos/logo150.jpg,,1,2020-12-15 17:25:36,2020-12-15 17:25:36
Servicio Geologico Nacional,SGN,,,info@sgn.gob.do,https://www.sgn.gob.do/,servicio-geolÃ³gico-nacional,1,1,1,32,(809) 732-0363,"Ave. Winston Churchill No. 75, Edificio ""J. F. Martínez"", 3er. Piso,",https://psplbk.serviciosrd.gob.do/storage/logos/logo151.jpg,,1,2020-12-16 10:25:35,2020-12-16 10:25:35
Museo Nacional de Historia Natural PEJM,MHNP,,,Informacion@mnhn.gov.do,https://mnhn.gov.do/,museo-nacional-de-historia-natural-pejm,1,1,1,40,(809) 689-0106,"Calle César Nicolás Penson, Plaza de la Cultura.",https://psplbk.serviciosrd.gob.do/storage/logos/logo152.png,,1,2021-03-04 14:20:21,2021-03-04 14:20:21
Fuerza Aerea de la Republica Dominicana,FARD,401036894,,contacto@fard.mil.do,https://fard.mil.do/,fuerza-aerea-de-la-republica-dominicana,32,218,1104,11155,(809) 688-3333,"Autopista Rafael Tomás Fernández, Santo Domingo Este, Santo Domingo",https://psplbk.serviciosrd.gob.do/storage/logos/logo153.png,,1,2021-07-16 10:03:00,2021-07-16 12:34:56
Instituto Dominicano de Evaluacion e Investigacion de la Calidad Educativa,IDEICE,,,info@ideice.gob.do,https://ideice.gob.do/,instituto-dominicano-de-evaluacion-e-investigacion-de-la-calidad-educativa,1,1,1,40,(809) 686-7152,"Av. Francia No. 141, Gazcue. Santo Domingo, D.N.",https://psplbk.serviciosrd.gob.do/storage/logos/logo154.png,,1,2021-08-05 10:58:50,2021-08-13 14:07:47
Contraloría General de la República,CGR,,,contacto@contraloria.gob.do,https://www.contraloria.gob.do/,contralorÃ­a-general-de-la-repÃºblica,1,1,1,40,(809) 682-1677,"Calle Pedro A. Lluberes, Santo Domingo",https://psplbk.serviciosrd.gob.do/storage/logos/logo155.png,,1,2021-08-17 14:52:13,2021-08-17 14:56:18
Direccion General de Ganaderia,DIGEGA,,,digega@ganaderia.gob.do,http://www.ganaderia.gob.do/,direccion-general-de-ganaderia,1,1,1,36,(809) 535-9689,"Autopista 30 de Mayo, Ciudad Ganadera, Santo Domingo, República Dominicana",https://psplbk.serviciosrd.gob.do/storage/logos/logo156.png,,1,2021-11-01 09:23:18,2021-11-26 11:41:56
Corporacion de Fomento de la Industria Hotelera y Desarrollo del Turismo,CORPHOTELS,,,info@corphotels.gob,https://www.corphotels.gob.do/,corporacion-de-fomento-de-la-industria-hotelera-y-desarrollo-del-turismo,1,1,1,1,(809) 688-3417,"Edificio de Oficinas Gubernamentales, Av. México Esq, Bloque C, Santo Domingo , Av. 30 de Marzo, Santo Domingo",https://psplbk.serviciosrd.gob.do/storage/logos/logo157.jpg,,1,2021-11-09 09:07:11,2021-11-09 10:04:15
Programa de Medicamentos Esenciales y Central de Apoyo Logistico.,PROMESECAL,,,oai@promesecal.gob.do,www.promesecal.gob.do,programa-de-medicamentos-esenciales-y-central-de-apoyo-logistico.,32,222,1118,11305,(809) 518-1313,Calle Interior A Santo Domingo 10102,https://psplbk.serviciosrd.gob.do/storage/logos/logo158.png,,1,2021-12-15 10:19:44,2021-12-15 10:19:44
Ayuntamiento Santo Domingo Oeste,ASDO,,,alcaldiasdo@asdo.gob.do,https://ayuntamientosdo.gob.do/,ayuntamiento-santo-domingo-oeste,32,220,1113,11261,(829) 956-2020,"C/ Los coquitos #19, manzana 19 Las Caobas, Santo Domingo Oeste, R.D",https://psplbk.serviciosrd.gob.do/storage/logos/logo159.png,,1,2022-01-26 08:33:09,2022-01-26 08:33:10
Instituto de Desarrollo y Credito Cooperativo,IDECOOP,,,info@idecoop.gob.do,https://idecoop.gob.do/,instituto-de-desarrollo-y-credito-cooperativo,32,218,1104,11155,(809) 533-8131,"Calle Héroes de Luperón #1, Centro de los Héroes, Santo Domingo, D. N. República Dominicana",https://psplbk.serviciosrd.gob.do/storage/logos/logo160.png,,1,2022-01-26 09:18:54,2022-05-11 17:58:17
Comedores Economicos del Estado Dominicano.,CEED,,,libreaccesoalainformacion@comedoreseconomicos.gob.do,www.comedoreseconomicos.gob.do,comedores-economicos-del-estado-dominicano.,32,218,1104,11158,(809) 592-1819,"Av. San Vicente de Paul esquina Presidente Estrella Ureña #419, Los Mina. Santo Domingo Este.",https://psplbk.serviciosrd.gob.do/storage/logos/logo161.png,,1,2022-02-03 10:17:02,2022-02-10 12:49:27
Ministerio de Deportes y Recreacion .,(MIDEREC),,,info@miderec.gob.do,www.miderec.gob.do,ministerio-de-deportes-y-recreacion-.,1,1,1,11510,(809) 540-4010,"Ave. 27 de Febrero Centro Olímpico Juan Pablo Duarte, El Vergel. Santo Domingo, D. N.",https://psplbk.serviciosrd.gob.do/storage/logos/logo162.png,,1,2022-02-22 10:59:16,2022-02-22 11:06:05
INSTITUTO POSTAL DOMINICANO,INPOSDOM,0,,servicioalcliente@inposdom.gob.do,https://inposdom.gob.do/,instituto-postal-dominicano,1,1,1,38,(809) 534-5838,Centro de Los Heroes,https://psplbk.serviciosrd.gob.do/storage/logos/logo163.png,,1,2022-02-28 11:46:04,2022-05-17 16:05:47
Instituto de Auxilios y Viviendas,INAVI,,,info@inavi.gob.do,https://inavi.gob.do/,instituto-de-auxilios-y-viviendas,1,1,1,53,(809) 687-7181,"Calle Benito Monción # 51, Casi Esq. Independencia",https://psplbk.serviciosrd.gob.do/storage/logos/logo164.png,,1,2022-03-29 11:13:04,2022-04-04 11:50:28
Dirección General de Bellas Artes,DGBA,,,info@dgba.gob.do,https://www.bellasartesrd.gob.do/index.php,direcciÃ³n-general-de-bellas-artes,1,1,1,53,(809) 687-0504,"PALACIO DE BELLAS ARTES, AV. MÁXIMO GÓMEZ ESQUINA AV. INDEPENDENCIA",https://psplbk.serviciosrd.gob.do/storage/logos/logo165.png,,1,2022-04-01 12:28:19,2022-05-16 11:38:18
Ayuntamiento de Villa Tapia,AVT,88888888,3a75884b-0a66-46c1-9fda-dbe31dcd191c,info@ayuntamientovillatapia.gob.do,www.ayuntamientovillatapia.gob.do,ayuntamiento-de-villa-tapia,19,133,665,5886,(809) 574-3003,C/ CHITO CEPEDA ESQ. SÁNCHEZ #10,https://psplbk.serviciosrd.gob.do/storage/logos/logo166.jpeg,0005,1,2022-04-05 14:50:21,2022-04-05 14:50:21
Organismo Dominicano de Acreditacion,ODAC,,,info@odac.gob.do,https://www.odac.gob.do/index.php,organismo-dominicano-de-acreditaciÃ³n,1,1,1,22,(809) 227-9100,"Av. Núñez de Cáceres 11, Santo Domingo 10114",https://psplbk.serviciosrd.gob.do/storage/logos/logo167.png,,1,2022-04-12 08:45:39,2022-04-12 08:45:39
Instituto nacional de recursos hidraulicos,INDRHI,,,Info@indrhi.gob.do,https://indrhi.gob.do/,instituto-nacional-de-recursos-hidrÃ¡ulicos,1,1,1,37,(809) 532-3271,"Av. Jiménez Moya, Centro de los Héroes, Santo Domingo, República Dominicana.",https://psplbk.serviciosrd.gob.do/storage/logos/logo168.png,,1,2022-04-25 12:28:13,2022-09-06 06:05:39
Direccion General de Riesgos Agropecuarios,DIGERA,,,info@digera.gob.do,https://www.digera.gob.do/,direcciÃ³n-general-de-riesgos-agropecuarios,1,1,1148,11498,(809) 638-5054,"Ave. John F. Kennedy # 419, KM. 6 ½, Jardines del Norte, Santo Domingo, R.D.",https://psplbk.serviciosrd.gob.do/storage/logos/logo169.png,,1,2022-04-25 16:36:19,2022-04-25 16:36:19
Defensa Civil Dominicana,DCD,,,info@defensacivil.gob.do,https://www.defensacivil.gob.do/,defensa-civil-dominicana,1,1,1,1,(809) 472-8614,"Avenida Ortega y Gasset Esq. Pepillo Salcedo, Plaza de la Salud al lado de OPS, 2da Planta",https://psplbk.serviciosrd.gob.do/storage/logos/logo170.png,,1,2022-05-03 10:17:34,2022-05-03 10:17:34
Dreccion General de Mineria,PPP,,,asdfasd@gg.com,https://www.mineria.gob.do/,dreccion-general-de-mineria,1,1,1,53,(809) 685-7135,"Ave. México esq. Leopoldo Navarro, Edificio Gubernamental ""Juan P. Duarte"" piso 10, Santo Domingo, República Dominicana",https://psplbk.serviciosrd.gob.do/storage/logos/logo171.jfif,,1,2022-05-12 14:01:10,2022-05-13 14:59:40
Industria Nacional de la Aguja,INAGUJA,,,contacto@inaguja.gob.do,www.inaguja.gob.do,industria-nacional-de-la-aguja,1,1,1,44,(809) 566-2170,"C/ Luis E. Pérez # 49, Ens. la Fe , Santo Domingo, República Dominicana",https://psplbk.serviciosrd.gob.do/storage/logos/logo172.png,,1,2022-07-04 15:42:41,2022-07-04 15:42:41
Instituto Cartografico Militar,ICM,,,contacto@icm.mil.do,https://icm.mil.do/,instituto-cartografico-militar,1,1,1,38,(809) 508-3311,"Av. Jiménez Moya esq. Rafael Damirón Centro de los Héroes de la Restauración Santo Domingo, Distrito Nacional",https://psplbk.serviciosrd.gob.do/storage/logos/logo173.png,,1,2022-09-14 02:21:55,2022-09-14 02:21:55
